AMAZONAS 3              
1 39078U 13006A   26073.91300321 -.00000283  00000+0  00000+0 0  9996
2 39078   0.0301 218.1169 0002211 121.6201 100.4523  1.00271267 43963
AZERSPACE 1             
1 39079U 13006B   26073.93414995  .00000000  00000+0  00000+0 0  9998
2 39079   0.0249 147.7369 0001137 240.8373 166.2604  1.00270870 47866
SBIRS GEO-2 (USA 241)   
1 39120U 13011A   26072.41760460 -.00000284  00000+0  00000+0 0  9999
2 39120   4.2817  52.3935 0002280 297.8022 281.3772  1.00271486 47570
EUTELSAT 117 WEST A     
1 39122U 13012A   26073.90173649 -.00000014  00000+0  00000+0 0  9995
2 39122   0.0334 292.8394 0002895  71.1413  16.3425  1.00272709 47489
ANIK G1                 
1 39127U 13014A   26073.90372984 -.00000075  00000+0  00000+0 0  9992
2 39127   0.0279 251.6850 0002690  83.5480  55.3099  1.00272191 47302
ZHONGXING-11            
1 39157U 13020A   26072.87474187 -.00000290  00000+0  00000+0 0  9994
2 39157   0.0296  21.4968 0001017  20.1576 182.6440  1.00269050 46945
EUTELSAT 7B             
1 39163U 13022A   26073.90739228  .00000047  00000+0  00000+0 0  9997
2 39163   0.0670 352.2435 0006263   7.3993 146.5192  1.00271364 47002
WGS F5 (USA 243)        
1 39168U 13024A   26072.91625539 -.00000285  00000+0  00000+0 0  9998
2 39168   0.0098 147.9252 0000436 273.1044  27.8637  1.00271452 46218
DELTA 4 R/B             
1 39169U 13024B   26072.42406515 -.00000174  00000+0  92709-3 0  9994
2 39169  24.3760  52.7151 8246938 344.1575   0.4971  1.10022131 51392
SES-6                   
1 39172U 13026A   26073.91698988 -.00000262  00000+0  00000+0 0  9999
2 39172   0.0479 302.2704 0002047  72.9634  86.8959  1.00270902 46787
BREEZE-M R/B            
1 39173U 13026B   26069.92394711 -.00000317  00000+0  00000+0 0  9994
2 39173  29.1543 315.7841 7658544 180.5830 177.0576  1.10513791 51166
IRNSS-1A                
1 39199U 13034A   26073.04747431  .00000095  00000+0  00000+0 0  9992
2 39199  35.5120  65.2274 0017342 190.9436 347.4797  1.00272937 46411
MUOS-2                  
1 39206U 13036A   26073.74525657 -.00000010  00000+0  00000+0 0  9992
2 39206   4.8073  45.3464 0052226 183.5483  23.7478  1.00269604 46244
ALPHASAT                
1 39215U 13038A   26073.50207516  .00000136  00000+0  00000+0 0  9997
2 39215   2.9838   2.1432 0001897  19.4488 356.1494  1.00272114 43077
INSAT-3D                
1 39216U 13038B   26073.87937639 -.00000339  00000+0  00000+0 0  9990
2 39216   1.6808  83.7756 0001546 245.2313 289.5671  1.00276246 46138
WGS F6 (USA 244)        
1 39222U 13041A   26072.33725238  .00000000  00000+0  00000+0 0  9995
2 39222   0.0250 147.1038 0000949 185.0190 185.0872  1.00272994 45102
ES'HAIL 1               
1 39233U 13044A   26073.85883630  .00000000  00000+0  00000+0 0  9999
2 39233   0.0255  20.9375 0002786 331.9518 154.2660  1.00269703 45688
