[{"OBJECT_NAME":"AMAZONAS 3","OBJECT_ID":"2013-006A","EPOCH":"2026-03-14T21:54:43.477344","MEAN_MOTION":1.00271267,"ECCENTRICITY":0.00022115,"INCLINATION":0.0301,"RA_OF_ASC_NODE":218.1169,"ARG_OF_PERICENTER":121.6201,"MEAN_ANOMALY":100.4523,"EPHEMERIS_TYPE":0,"CLASSIFICATION_TYPE":"U","NORAD_CAT_ID":39078,"ELEMENT_SET_NO":999,"REV_AT_EPOCH":4396,"BSTAR":0,"MEAN_MOTION_DOT":-2.83e-6,"MEAN_MOTION_DDOT":0},{"OBJECT_NAME":"AZERSPACE 1","OBJECT_ID":"2013-006B","EPOCH":"2026-03-14T22:25:10.555680","MEAN_MOTION":1.0027087,"ECCENTRICITY":0.0001137,"INCLINATION":0.0249,"RA_OF_ASC_NODE":147.7369,"ARG_OF_PERICENTER":240.8373,"MEAN_ANOMALY":166.2604,"EPHEMERIS_TYPE":0,"CLASSIFICATION_TYPE":"U","NORAD_CAT_ID":39079,"ELEMENT_SET_NO":999,"REV_AT_EPOCH":4786,"BSTAR":0,"MEAN_MOTION_DOT":0,"MEAN_MOTION_DDOT":0},{"OBJECT_NAME":"SBIRS GEO-2 (USA 241)","OBJECT_ID":"2013-011A","EPOCH":"2026-03-13T10:01:21.037440","MEAN_MOTION":1.00271486,"ECCENTRICITY":0.00022807,"INCLINATION":4.2817,"RA_OF_ASC_NODE":52.3935,"ARG_OF_PERICENTER":297.8022,"MEAN_ANOMALY":281.3772,"EPHEMERIS_TYPE":0,"CLASSIFICATION_TYPE":"U","NORAD_CAT_ID":39120,"ELEMENT_SET_NO":999,"REV_AT_EPOCH":4757,"BSTAR":0,"MEAN_MOTION_DOT":-2.84e-6,"MEAN_MOTION_DDOT":0},{"OBJECT_NAME":"EUTELSAT 117 WEST A","OBJECT_ID":"2013-012A","EPOCH":"2026-03-14T21:38:30.032736","MEAN_MOTION":1.00272709,"ECCENTRICITY":0.00028955,"INCLINATION":0.0334,"RA_OF_ASC_NODE":292.8394,"ARG_OF_PERICENTER":71.1413,"MEAN_ANOMALY":16.3425,"EPHEMERIS_TYPE":0,"CLASSIFICATION_TYPE":"U","NORAD_CAT_ID":39122,"ELEMENT_SET_NO":999,"REV_AT_EPOCH":4748,"BSTAR":0,"MEAN_MOTION_DOT":-1.4e-7,"MEAN_MOTION_DDOT":0},{"OBJECT_NAME":"ANIK G1","OBJECT_ID":"2013-014A","EPOCH":"2026-03-14T21:41:22.258176","MEAN_MOTION":1.00272191,"ECCENTRICITY":0.00026904,"INCLINATION":0.0279,"RA_OF_ASC_NODE":251.685,"ARG_OF_PERICENTER":83.548,"MEAN_ANOMALY":55.3099,"EPHEMERIS_TYPE":0,"CLASSIFICATION_TYPE":"U","NORAD_CAT_ID":39127,"ELEMENT_SET_NO":999,"REV_AT_EPOCH":4730,"BSTAR":0,"MEAN_MOTION_DOT":-7.5e-7,"MEAN_MOTION_DDOT":0},{"OBJECT_NAME":"ZHONGXING-11","OBJECT_ID":"2013-020A","EPOCH":"2026-03-13T20:59:37.697568","MEAN_MOTION":1.0026905,"ECCENTRICITY":0.00010173,"INCLINATION":0.0296,"RA_OF_ASC_NODE":21.4968,"ARG_OF_PERICENTER":20.1576,"MEAN_ANOMALY":182.644,"EPHEMERIS_TYPE":0,"CLASSIFICATION_TYPE":"U","NORAD_CAT_ID":39157,"ELEMENT_SET_NO":999,"REV_AT_EPOCH":4694,"BSTAR":0,"MEAN_MOTION_DOT":-2.9e-6,"MEAN_MOTION_DDOT":0},{"OBJECT_NAME":"EUTELSAT 7B","OBJECT_ID":"2013-022A","EPOCH":"2026-03-14T21:46:38.692992","MEAN_MOTION":1.00271364,"ECCENTRICITY":0.0006263,"INCLINATION":0.067,"RA_OF_ASC_NODE":352.2435,"ARG_OF_PERICENTER":7.3993,"MEAN_ANOMALY":146.5192,"EPHEMERIS_TYPE":0,"CLASSIFICATION_TYPE":"U","NORAD_CAT_ID":39163,"ELEMENT_SET_NO":999,"REV_AT_EPOCH":4700,"BSTAR":0,"MEAN_MOTION_DOT":4.7e-7,"MEAN_MOTION_DDOT":0},{"OBJECT_NAME":"WGS F5 (USA 243)","OBJECT_ID":"2013-024A","EPOCH":"2026-03-13T21:59:24.465696","MEAN_MOTION":1.00271452,"ECCENTRICITY":4.36e-5,"INCLINATION":0.0098,"RA_OF_ASC_NODE":147.9252,"ARG_OF_PERICENTER":273.1044,"MEAN_ANOMALY":27.8637,"EPHEMERIS_TYPE":0,"CLASSIFICATION_TYPE":"U","NORAD_CAT_ID":39168,"ELEMENT_SET_NO":999,"REV_AT_EPOCH":4621,"BSTAR":0,"MEAN_MOTION_DOT":-2.85e-6,"MEAN_MOTION_DDOT":0},{"OBJECT_NAME":"DELTA 4 R/B","OBJECT_ID":"2013-024B","EPOCH":"2026-03-13T10:10:39.228960","MEAN_MOTION":1.10022131,"ECCENTRICITY":0.82469385,"INCLINATION":24.376,"RA_OF_ASC_NODE":52.7151,"ARG_OF_PERICENTER":344.1575,"MEAN_ANOMALY":0.4971,"EPHEMERIS_TYPE":0,"CLASSIFICATION_TYPE":"U","NORAD_CAT_ID":39169,"ELEMENT_SET_NO":999,"REV_AT_EPOCH":5139,"BSTAR":0.00092709095,"MEAN_MOTION_DOT":-1.74e-6,"MEAN_MOTION_DDOT":0},{"OBJECT_NAME":"SES-6","OBJECT_ID":"2013-026A","EPOCH":"2026-03-14T22:00:27.925632","MEAN_MOTION":1.00270902,"ECCENTRICITY":0.0002047,"INCLINATION":0.0479,"RA_OF_ASC_NODE":302.2704,"ARG_OF_PERICENTER":72.9634,"MEAN_ANOMALY":86.8959,"EPHEMERIS_TYPE":0,"CLASSIFICATION_TYPE":"U","NORAD_CAT_ID":39172,"ELEMENT_SET_NO":999,"REV_AT_EPOCH":4678,"BSTAR":0,"MEAN_MOTION_DOT":-2.62e-6,"MEAN_MOTION_DDOT":0},{"OBJECT_NAME":"BREEZE-M R/B","OBJECT_ID":"2013-026B","EPOCH":"2026-03-10T22:10:29.030304","MEAN_MOTION":1.10513791,"ECCENTRICITY":0.76585448,"INCLINATION":29.1543,"RA_OF_ASC_NODE":315.7841,"ARG_OF_PERICENTER":180.583,"MEAN_ANOMALY":177.0576,"EPHEMERIS_TYPE":0,"CLASSIFICATION_TYPE":"U","NORAD_CAT_ID":39173,"ELEMENT_SET_NO":999,"REV_AT_EPOCH":5116,"BSTAR":0,"MEAN_MOTION_DOT":-3.17e-6,"MEAN_MOTION_DDOT":0},{"OBJECT_NAME":"IRNSS-1A","OBJECT_ID":"2013-034A","EPOCH":"2026-03-14T01:08:21.780384","MEAN_MOTION":1.00272937,"ECCENTRICITY":0.00173426,"INCLINATION":35.512,"RA_OF_ASC_NODE":65.2274,"ARG_OF_PERICENTER":190.9436,"MEAN_ANOMALY":347.4797,"EPHEMERIS_TYPE":0,"CLASSIFICATION_TYPE":"U","NORAD_CAT_ID":39199,"ELEMENT_SET_NO":999,"REV_AT_EPOCH":4641,"BSTAR":0,"MEAN_MOTION_DOT":9.5e-7,"MEAN_MOTION_DDOT":0},{"OBJECT_NAME":"MUOS-2","OBJECT_ID":"2013-036A","EPOCH":"2026-03-14T17:53:10.167648","MEAN_MOTION":1.00269604,"ECCENTRICITY":0.00522269,"INCLINATION":4.8073,"RA_OF_ASC_NODE":45.3464,"ARG_OF_PERICENTER":183.5483,"MEAN_ANOMALY":23.7478,"EPHEMERIS_TYPE":0,"CLASSIFICATION_TYPE":"U","NORAD_CAT_ID":39206,"ELEMENT_SET_NO":999,"REV_AT_EPOCH":4624,"BSTAR":0,"MEAN_MOTION_DOT":-1.0e-7,"MEAN_MOTION_DDOT":0},{"OBJECT_NAME":"ALPHASAT","OBJECT_ID":"2013-038A","EPOCH":"2026-03-14T12:02:59.293824","MEAN_MOTION":1.00272114,"ECCENTRICITY":0.00018976,"INCLINATION":2.9838,"RA_OF_ASC_NODE":2.1432,"ARG_OF_PERICENTER":19.4488,"MEAN_ANOMALY":356.1494,"EPHEMERIS_TYPE":0,"CLASSIFICATION_TYPE":"U","NORAD_CAT_ID":39215,"ELEMENT_SET_NO":999,"REV_AT_EPOCH":4307,"BSTAR":0,"MEAN_MOTION_DOT":1.36e-6,"MEAN_MOTION_DDOT":0},{"OBJECT_NAME":"INSAT-3D","OBJECT_ID":"2013-038B","EPOCH":"2026-03-14T21:06:18.120096","MEAN_MOTION":1.00276246,"ECCENTRICITY":0.00015465,"INCLINATION":1.6808,"RA_OF_ASC_NODE":83.7756,"ARG_OF_PERICENTER":245.2313,"MEAN_ANOMALY":289.5671,"EPHEMERIS_TYPE":0,"CLASSIFICATION_TYPE":"U","NORAD_CAT_ID":39216,"ELEMENT_SET_NO":999,"REV_AT_EPOCH":4613,"BSTAR":0,"MEAN_MOTION_DOT":-3.39e-6,"MEAN_MOTION_DDOT":0},{"OBJECT_NAME":"WGS F6 (USA 244)","OBJECT_ID":"2013-041A","EPOCH":"2026-03-13T08:05:38.605632","MEAN_MOTION":1.00272994,"ECCENTRICITY":9.494e-5,"INCLINATION":0.025,"RA_OF_ASC_NODE":147.1038,"ARG_OF_PERICENTER":185.019,"MEAN_ANOMALY":185.0872,"EPHEMERIS_TYPE":0,"CLASSIFICATION_TYPE":"U","NORAD_CAT_ID":39222,"ELEMENT_SET_NO":999,"REV_AT_EPOCH":4510,"BSTAR":0,"MEAN_MOTION_DOT":0,"MEAN_MOTION_DDOT":0},{"OBJECT_NAME":"ES'HAIL 1","OBJECT_ID":"2013-044A","EPOCH":"2026-03-14T20:36:43.456320","MEAN_MOTION":1.00269703,"ECCENTRICITY":0.00027869,"INCLINATION":0.0255,"RA_OF_ASC_NODE":20.9375,"ARG_OF_PERICENTER":331.9518,"MEAN_ANOMALY":154.266,"EPHEMERIS_TYPE":0,"CLASSIFICATION_TYPE":"U","NORAD_CAT_ID":39233,"ELEMENT_SET_NO":999,"REV_AT_EPOCH":4568,"BSTAR":0,"MEAN_MOTION_DOT":0,"MEAN_MOTION_DDOT":0}]
